      2.10          N: GNSS NAV DATA                        RINEX VERSION / TYPE
fic2rin                                 10/26/2020 00:17:37 PGM / RUN BY / DATE
                                                            END OF HEADER
 9 20 10 25  4  0  0.0-3.047231584787e-04-5.115907697473e-12 0.000000000000e+00
    4.100000000000e+01-1.931250000000e+01 4.506259132352e-09 1.260976279512e+00
   -9.760260581970e-07 1.913652988151e-03 1.062825322151e-05 5.153633758545e+03
    1.440000000000e+04 1.676380634308e-08 2.391244332330e+00 1.862645149231e-09
    9.530414186862e-01 1.687812500000e+02 1.759843009851e+00-7.963545999370e-09
    2.646538810393e-10 1.000000000000e+00 2.129000000000e+03 0.000000000000e+00
    2.400000000000e+00 0.000000000000e+00 1.396983861923e-09 4.100000000000e+01
    7.200000000000e+03 4.000000000000e+00
 8 20 10 25  4  0  0.0-5.264254286885e-05-1.364242052659e-12 0.000000000000e+00
    1.040000000000e+02 4.475000000000e+01 4.273749447390e-09 9.584090216513e-01
    2.413988113403e-06 5.620684474707e-03 8.020550012589e-06 5.153744081497e+03
    1.440000000000e+04 9.685754776001e-08-7.501649547186e-01 5.774199962616e-08
    9.689775675651e-01 2.249375000000e+02-6.811779600819e-02-7.993904406777e-09
   -1.421487782100e-10 1.000000000000e+00 2.129000000000e+03 0.000000000000e+00
    3.400000000000e+00 0.000000000000e+00 5.122274160385e-09 1.040000000000e+02
    7.200000000000e+03 4.000000000000e+00
11 20 10 25  4  0  0.0-1.275078393519e-04 1.057287590811e-11 0.000000000000e+00
    6.800000000000e+01 5.581250000000e+01 5.513801100519e-09-1.895610443212e+00
    3.037974238396e-06 1.573599653784e-02 5.254521965981e-06 5.153729207993e+03
    1.440000000000e+04-1.601874828339e-07-1.630993000719e-01 3.352761268616e-07
    9.139440128423e-01 2.553750000000e+02 2.060260234566e+00-8.660003581052e-09
    7.786038605475e-11 1.000000000000e+00 2.129000000000e+03 0.000000000000e+00
    2.400000000000e+00 0.000000000000e+00-1.257285475731e-08 6.800000000000e+01
    7.200000000000e+03 4.000000000000e+00
13 20 10 25  4  0  0.0 5.807867273688e-05 3.751665644813e-12 0.000000000000e+00
    4.000000000000e+01-6.937500000000e+00 4.263034715364e-09 1.706702829538e-01
   -3.892928361893e-07 4.700924037024e-03 1.000426709652e-05 5.153690145493e+03
    1.440000000000e+04-9.313225746155e-09 2.536453996347e+00 4.842877388000e-08
    9.681489312662e-01 1.923750000000e+02 1.048924775173e+00-7.847469735756e-09
    2.435815747217e-10 1.000000000000e+00 2.129000000000e+03 0.000000000000e+00
    2.400000000000e+00 0.000000000000e+00-1.164153218269e-08 4.000000000000e+01
    7.200000000000e+03 4.000000000000e+00
15 20 10 25  4  0  0.0-1.946366392076e-04 2.614797267597e-12 0.000000000000e+00
    9.300000000000e+01-2.787500000000e+01 5.161643574602e-09-8.313487245542e-02
   -1.315027475357e-06 1.294992759358e-02 9.721145033836e-06 5.153766733170e+03
    1.440000000000e+04 5.587935447693e-09 2.297838281319e+00 2.011656761169e-07
    9.285546175012e-01 1.767812500000e+02 9.376787410090e-01-8.445351782801e-09
    1.785788670980e-10 1.000000000000e+00 2.129000000000e+03 0.000000000000e+00
    2.400000000000e+00 0.000000000000e+00-1.071020960808e-08 9.300000000000e+01
    7.200000000000e+03 4.000000000000e+00
12 20 10 25  4  0  0.0 4.952074959874e-05-5.115907697473e-12 0.000000000000e+00
    8.200000000000e+01-6.562500000000e-01 4.345895309698e-09-2.706803533049e+00
    2.235174179077e-08 7.935473578982e-03 7.465481758118e-06 5.153610998154e+03
    1.440000000000e+04 1.173466444016e-07-1.710554014046e+00-5.960464477539e-08
    9.760852969562e-01 2.424375000000e+02 1.165178982107e+00-7.828540375844e-09
   -2.800116636097e-10 1.000000000000e+00 2.129000000000e+03 0.000000000000e+00
    2.400000000000e+00 0.000000000000e+00-1.257285475731e-08 8.200000000000e+01
    7.200000000000e+03 4.000000000000e+00
31 20 10 25  4  0  0.0-7.712841033936e-05-2.387423592154e-12 0.000000000000e+00
    2.200000000000e+01 3.593750000000e+01 4.886632119271e-09-2.380318042967e+00
    1.681968569756e-06 9.803846594878e-03 6.871297955513e-06 5.153677495956e+03
    1.440000000000e+04-1.024454832077e-07-2.802779296219e+00-2.197921276093e-07
    9.571832572218e-01 2.491250000000e+02 1.822391737131e-01-8.126052768429e-09
    1.957224383395e-10 1.000000000000e+00 2.129000000000e+03 0.000000000000e+00
    2.400000000000e+00 0.000000000000e+00-1.303851604462e-08 2.200000000000e+01
    7.200000000000e+03 4.000000000000e+00
27 20 10 25  4  0  0.0-4.261219874024e-04-8.526512829121e-12 0.000000000000e+00
    1.100000000000e+01 4.118750000000e+01 4.148387082688e-09 8.367495006496e-01
    2.326443791389e-06 8.453393471427e-03 7.942318916321e-06 5.153676349640e+03
    1.440000000000e+04-1.303851604462e-08-7.346662768622e-01 1.043081283569e-07
    9.774749769677e-01 2.339062500000e+02 5.705919740746e-01-7.979975255143e-09
   -1.717928701483e-10 1.000000000000e+00 2.129000000000e+03 0.000000000000e+00
    2.400000000000e+00 0.000000000000e+00 1.862645149231e-09 1.100000000000e+01
    7.200000000000e+03 4.000000000000e+00
29 20 10 25  4  0  0.0-2.225749194622e-04-7.958078640513e-12 0.000000000000e+00
    4.400000000000e+01 4.125000000000e+01 3.841588589013e-09 8.620815627345e-01
    2.017244696617e-06 1.536078285426e-03 8.367002010345e-06 5.153736198425e+03
    1.440000000000e+04-2.607703208923e-08-6.633004589323e-01-3.539025783539e-08
    9.852672320607e-01 2.293125000000e+02 2.263453613403e+00-7.736750838156e-09
   -5.714523747137e-11 1.000000000000e+00 2.129000000000e+03 0.000000000000e+00
    2.400000000000e+00 0.000000000000e+00-1.024454832077e-08 4.400000000000e+01
    7.200000000000e+03 4.000000000000e+00
30 20 10 25  4  0  0.0-3.235805779696e-04-6.821210263297e-12 0.000000000000e+00
    4.200000000000e+01 3.959375000000e+01 5.304506668280e-09-2.031200527015e+00
    1.803040504456e-06 4.755753441714e-03 6.401911377907e-06 5.153570976257e+03
    1.440000000000e+04 2.607703208923e-08-2.798566010228e+00-6.705522537231e-08
    9.380648460519e-01 2.454687500000e+02-2.813991802579e+00-8.358205295657e-09
    2.235807416067e-10 1.000000000000e+00 2.129000000000e+03 0.000000000000e+00
    2.400000000000e+00 0.000000000000e+00 3.725290298462e-09 4.200000000000e+01
    7.200000000000e+03 4.000000000000e+00
25 20 10 25  4  0  0.0 1.081312075257e-05 6.139089236967e-12 0.000000000000e+00
    7.500000000000e+01-1.093750000000e+00 4.593048461762e-09-2.981292165962e+00
   -1.396983861923e-07 9.224756853655e-03 7.258728146553e-06 5.153716661453e+03
    1.440000000000e+04 2.980232238770e-08-1.781405278337e+00-1.695007085800e-07
    9.634272051702e-01 2.395625000000e+02 9.282115632116e-01-7.952831267344e-09
   -2.814402945465e-10 1.000000000000e+00 2.129000000000e+03 0.000000000000e+00
    2.400000000000e+00 0.000000000000e+00 5.587935447693e-09 7.500000000000e+01
    7.200000000000e+03 4.000000000000e+00
21 20 10 25  4  0  0.0 6.129499524832e-05 3.979039320257e-12 0.000000000000e+00
    4.600000000000e+01 3.500000000000e+00 4.760555439100e-09 1.396577850147e+00
   -4.805624485016e-07 2.384616981726e-02 3.902241587639e-06 5.155003873825e+03
    1.440000000000e+04 3.576278686523e-07 2.430787123584e-01-5.438923835754e-07
    9.550945364354e-01 2.965625000000e+02-1.273609549967e+00-8.309989001540e-09
    6.000249934494e-11 1.000000000000e+00 2.129000000000e+03 0.000000000000e+00
    2.400000000000e+00 0.000000000000e+00-1.024454832077e-08 4.600000000000e+01
    7.200000000000e+03 4.000000000000e+00
18 20 10 25  4  0  0.0 3.120666369796e-04 5.570655048359e-12 0.000000000000e+00
    3.700000000000e+01 6.281250000000e+00 4.426612957626e-09-1.026563776822e+00
    2.831220626831e-07 1.137631130405e-03 4.431232810020e-06 5.153708660126e+03
    1.440000000000e+04-2.048909664154e-08 3.359614527030e-01-3.166496753693e-08
    9.657582978353e-01 2.975312500000e+02 2.854426755886e+00-8.155696860368e-09
    9.678974596714e-11 1.000000000000e+00 2.129000000000e+03 0.000000000000e+00
    2.400000000000e+00 0.000000000000e+00-8.381903171539e-09 3.700000000000e+01
    7.200000000000e+03 4.000000000000e+00
19 20 10 25  4  0  0.0-8.728820830584e-05 5.002220859751e-12 0.000000000000e+00
    9.900000000000e+01 5.765625000000e+01 3.930878022562e-09-2.979313465393e+00
    3.021210432053e-06 9.085522615351e-03 8.696690201759e-06 5.153605396271e+03
    1.440000000000e+04 1.695007085800e-07-6.299263631215e-01 1.117587089539e-07
    9.818738063223e-01 2.206875000000e+02 1.738946276927e+00-7.708535377154e-09
    3.071556514086e-11 1.000000000000e+00 2.129000000000e+03 0.000000000000e+00
    2.400000000000e+00 0.000000000000e+00-1.536682248116e-08 9.900000000000e+01
    7.200000000000e+03 4.000000000000e+00
20 20 10 25  4  0  0.0 5.262782797217e-04-1.136868377216e-13 0.000000000000e+00
    9.900000000000e+01-6.815625000000e+01 5.018780480923e-09-1.865572959253e+00
   -3.533437848091e-06 5.779142258689e-03 5.841255187988e-06 5.153664348602e+03
    1.440000000000e+04-1.024454832077e-07 1.221579728865e+00-2.980232238770e-08
    9.353169373047e-01 2.550312500000e+02 2.738416126275e+00-8.399278435089e-09
    1.464346710204e-11 1.000000000000e+00 2.129000000000e+03 0.000000000000e+00
    2.400000000000e+00 0.000000000000e+00-8.381903171539e-09 9.900000000000e+01
    7.200000000000e+03 4.000000000000e+00
17 20 10 25  4  0  0.0 3.445735201240e-04 5.343281372916e-12 0.000000000000e+00
    6.800000000000e+01 5.006250000000e+01 3.980522947615e-09 6.893118811553e-01
    2.605840563774e-06 1.356967992615e-02 9.139999747276e-06 5.153780118942e+03
    1.440000000000e+04-1.639127731323e-07-6.753227913907e-01-3.911554813385e-08
    9.835167847475e-01 2.198125000000e+02-1.628643977067e+00-8.061407218540e-09
   -8.071764792831e-11 1.000000000000e+00 2.129000000000e+03 0.000000000000e+00
    2.400000000000e+00 0.000000000000e+00-1.117587089539e-08 6.800000000000e+01
    7.200000000000e+03 4.000000000000e+00
